NORAD_CAT_ID,OBJECT_NAME,OBJECT_TYPE,EPOCH,MEAN_MOTION,ECCENTRICITY,INCLINATION,RA_OF_ASC_NODE,ARG_OF_PERICENTER,MEAN_ANOMALY,BSTAR,MEAN_MOTION_DOT,MEAN_MOTION_DDOT,TLE_LINE0,TLE_LINE1,TLE_LINE2,SEMIMAJOR_AXIS,PERIOD,APOGEE,PERIGEE,DECAYED
50846.0,STARLINK-3308,PAYLOAD,2022-03-06 22:00:00,15.32621329,0.0001954,53.2175,271.6219,36.5355,110.0241,-0.022261,-0.00660664,0.0,0 STARLINK-3308,1 50846U 22001AV  22065.91667824 -.00660664  00000-0 -22261-1 0  9990,2 50846  53.2175 271.6219 0001954  36.5355 110.0241 15.32621329  3660,6846.132,93.957,469.335,466.659,0.0
50846.0,STARLINK-3308,PAYLOAD,2022-03-07 12:00:00,15.31804741,0.0001705,53.2174,268.9068,41.6767,84.315,-0.022844,-0.0066069999999999,0.0,0 STARLINK-3308,1 50846U 22001AV  22066.50001157 -.00660700  00000-0 -22844-1 0  9995,2 50846  53.2174 268.9068 0001705  41.6767  84.3150 15.31804741  3693,6848.565,94.007,471.597,469.262,0.0
50846.0,STARLINK-3308,PAYLOAD,2022-03-07 22:00:00,15.31220891,0.0001994,53.2176,266.9731,35.8554,228.6774,-0.023203,-0.00659059,0.0,0 STARLINK-3308,1 50846U 22001AV  22066.91667824 -.00659059  00000-0 -23203-1 0  9994,2 50846  53.2176 266.9731 0001994  35.8554 228.6774 15.31220891 10702,6850.306,94.043,473.537,470.805,0.0
50846.0,STARLINK-3308,PAYLOAD,2022-03-08 14:00:01,15.30288359,0.0001766,53.2178,263.8777,35.7618,304.6172,-0.023905,-0.00659446,0.0,0 STARLINK-3308,1 50846U 22001AV  22067.58334491 -.00659446  00000-0 -23905-1 0  9998,2 50846  53.2178 263.8777 0001766  35.7618 304.6172 15.30288359  3663,6853.0880000000025,94.1,476.164,473.74300000000005,0.0
50846.0,STARLINK-3308,PAYLOAD,2022-03-08 22:00:00,15.29822139,0.0001768,53.2177,262.3343,35.5095,341.9504,-0.024322,-0.00661162,0.0,0 STARLINK-3308,1 50846U 22001AV  22067.91667824 -.00661162  00000-0 -24322-1 0  9996,2 50846  53.2177 262.3343 0001768  35.5095 341.9504 15.29822139  3654,6854.481,94.129,477.557,475.134,0.0
50846.0,STARLINK-3308,PAYLOAD,2022-03-09 06:00:00,15.29355185,0.0001725,53.2176,260.7887,35.621,18.3611,-0.024652,-0.0066054,0.0,0 STARLINK-3308,1 50846U 22001AV  22068.25001157 -.00660540  00000-0 -24652-1 0  9990,2 50846  53.2176 260.7887 0001725  35.6210  18.3611 15.29355185 10903,6855.876,94.157,478.923,476.5580000000001,0.0
50846.0,STARLINK-3308,PAYLOAD,2022-03-09 14:00:01,15.28887945,0.0001962,53.2177,259.2455,31.1931,58.7498,-0.024944,-0.00658929,0.0,0 STARLINK-3308,1 50846U 22001AV  22068.58334491 -.00658929  00000-0 -24944-1 0  9998,2 50846  53.2177 259.2455 0001962  31.1931  58.7498 15.28887945  3650,6857.272,94.186,480.483,477.792,0.0
50846.0,STARLINK-3308,PAYLOAD,2022-03-09 22:00:01,15.28420333,0.0001906,53.2176,257.7053,36.865,88.5409,-0.025257,-0.00657729,0.0,0 STARLINK-3308,1 50846U 22001AV  22068.91668981 -.00657729  00000-0 -25257-1 0  9994,2 50846  53.2176 257.7053 0001906  36.8650  88.5409 15.28420333  3651,6858.670999999999,94.215,481.843,479.229,0.0
50846.0,STARLINK-3308,PAYLOAD,2022-03-10 14:00:01,15.27432522,0.0001716,53.2169,254.6216,40.2305,154.2586,-0.022812,-0.00581368,0.0,0 STARLINK-3308,1 50846U 22001AV  22069.58334491 -.00581368  00000-0 -22812-1 0  9993,2 50846  53.2169 254.6216 0001716  40.2305 154.2586 15.27432522  3632,6861.628000000002,94.276,484.67,482.315,0.0
50846.0,STARLINK-3308,PAYLOAD,2022-03-10 20:00:01,15.27139474,0.0001929,53.2175,253.4707,37.4693,92.3308,-0.026413,-0.00661086,0.0,0 STARLINK-3308,1 50846U 22001AV  22069.83334491 -.00661086  00000-0 -26413-1 0  9998,2 50846  53.2175 253.4707 0001929  37.4693  92.3308 15.27139474 11144,6862.505999999999,94.294,485.694,483.047,0.0
50846.0,STARLINK-3308,PAYLOAD,2022-03-10 22:00:01,15.27019368,0.0001896,53.2176,253.0862,40.5566,187.6854,-0.026245,-0.00654935,0.0,0 STARLINK-3308,1 50846U 22001AV  22069.91668981 -.00654935  00000-0 -26245-1 0  9999,2 50846  53.2176 253.0862 0001896  40.5566 187.6854 15.27019368  3661,6862.865,94.301,486.032,483.429,0.0
50846.0,STARLINK-3308,PAYLOAD,2022-03-11 14:00:01,15.26089071,0.0001829,53.2177,250.0108,37.5425,256.3896,-0.027191,-0.0065926,0.0,0 STARLINK-3308,1 50846U 22001AV  22070.58334491 -.00659260  00000-0 -27191-1 0  9997,2 50846  53.2177 250.0108 0001829  37.5425 256.3896 15.26089071  3632,6865.654,94.359,488.775,486.263,0.0
50846.0,STARLINK-3308,PAYLOAD,2022-03-11 22:00:00,15.25620618,0.0001682,53.2176,248.4771,41.6026,284.3653,-0.027451,-0.00656379,0.0,0 STARLINK-3308,1 50846U 22001AV  22070.91667824 -.00656379  00000-0 -27451-1 0  9990,2 50846  53.2176 248.4771 0001682  41.6026 284.3653 15.25620618 11311,6867.059,94.388,490.08,487.769,0.0
50846.0,STARLINK-3308,PAYLOAD,2022-03-12 14:00:01,15.24690289,0.0001781,53.2178,245.4085,35.2215,353.1364,-0.028456,-0.00661211,0.0,0 STARLINK-3308,1 50846U 22001AV  22071.58334491 -.00661211  00000-0 -28456-1 0  9992,2 50846  53.2178 245.4085 0001781  35.2215 353.1364 15.24690289  3659,6869.853,94.445,492.941,490.494,0.0
50846.0,STARLINK-3308,PAYLOAD,2022-03-12 22:00:00,15.2421984,0.0001604,53.2175,243.8778,42.3673,16.3454,-0.028568,-0.00654945,0.0,0 STARLINK-3308,1 50846U 22001AV  22071.91667824 -.00654945  00000-0 -28568-1 0  9998,2 50846  53.2175 243.8778 0001604  42.3673  16.3454 15.24219840 11464,6871.266,94.475,494.233,492.029,0.0
50846.0,STARLINK-3308,PAYLOAD,2022-03-13 14:00:01,15.23289697,0.0001889,53.2176,240.8157,35.831,81.9078,-0.02962,-0.0066006,0.0,0 STARLINK-3308,1 50846U 22001AV  22072.58334491 -.00660060  00000-0 -29620-1 0  9998,2 50846  53.2176 240.8157 0001889  35.8310  81.9078 15.23289697  3673,6874.063,94.532,497.226,494.629,0.0
50846.0,STARLINK-3308,PAYLOAD,2022-03-13 20:00:01,15.22940577,0.0001629,53.2175,239.6702,45.7126,3.5819,-0.029991,-0.0066128,0.0,0 STARLINK-3308,1 50846U 22001AV  22072.83334491 -.00661280  00000-0 -29991-1 0  9992,2 50846  53.2175 239.6702 0001629  45.7126   3.5819 15.22940577 11606,6875.113,94.554,498.098,495.858,0.0
50846.0,STARLINK-3308,PAYLOAD,2022-03-13 22:00:01,15.22818268,0.0001696999999999,53.2174,239.2882,45.3293,101.1462,-0.029632,-0.0065172,0.0,0 STARLINK-3308,1 50846U 22001AV  22072.91668981 -.00651720  00000-0 -29632-1 0  9995,2 50846  53.2174 239.2882 0001697  45.3293 101.1462 15.22818268  3652,6875.482,94.562,498.513,496.18,0.0
50846.0,STARLINK-3308,PAYLOAD,2022-03-14 14:00:01,15.21888707,0.000188,53.2177,236.2329,41.2547,160.8827,-0.030761,-0.006577,0.0,0 STARLINK-3308,1 50846U 22001AV  22073.58335648 -.00657700  00000-0 -30761-1 0  9999,2 50846  53.2177 236.2329 0001880  41.2547 160.8827 15.21888707  3649,6878.281,94.619,501.439,498.853,0.0
50846.0,STARLINK-3308,PAYLOAD,2022-03-14 20:00:01,15.21539547,0.0001659,53.2175,235.0897,50.4997,81.8685,-0.031144,-0.00658926,0.0,0 STARLINK-3308,1 50846U 22001AV  22073.83334491 -.00658926  00000-0 -31144-1 0  9999,2 50846  53.2175 235.0897 0001659  50.4997  81.8685 15.21539547  3615,6879.333000000001,94.641,502.339,500.057,0.0
50846.0,STARLINK-3308,PAYLOAD,2022-03-14 22:00:00,15.21419179,0.0001634,53.2173,234.7086,51.7397,177.3247,-0.03091,-0.00652165,0.0,0 STARLINK-3308,1 50846U 22001AV  22073.91667824 -.00652165  00000-0 -30910-1 0  9996,2 50846  53.2173 234.7086 0001634  51.7397 177.3247 15.21419179 11768,6879.696,94.648,502.685,500.437,0.0
50846.0,STARLINK-3308,PAYLOAD,2022-03-15 02:00:01,15.21189652,0.0001491,53.2173,233.9453,48.4667,13.8821,-0.031477,-0.00659096,0.0,0 STARLINK-3308,1 50846U 22001AV  22074.08334491 -.00659096  00000-0 -31477-1 0  9995,2 50846  53.2173 233.9453 0001491  48.4667  13.8821 15.21189652  3629,6880.388000000001,94.663,503.279,501.227,0.0
50846.0,STARLINK-3308,PAYLOAD,2022-03-15 22:00:00,15.20021433,0.0001515,53.2172,230.1386,51.274,255.3968,-0.032359,-0.00655012,0.0,0 STARLINK-3308,1 50846U 22001AV  22074.91667824 -.00655012  00000-0 -32359-1 0  9990,2 50846  53.2172 230.1386 0001515  51.2740 255.3968 15.20021433 11921,6883.913000000001,94.736,506.821,504.735,0.0
50846.0,STARLINK-3308,PAYLOAD,2022-03-16 14:00:01,15.19090019,0.0001719,53.2177,227.0967,39.6985,315.9074,-0.033442,-0.0066569,0.0,0 STARLINK-3308,1 50846U 22001AV  22075.58334491 -.00665690  00000-0 -33442-1 0  9992,2 50846  53.2177 227.0967 0001719  39.6985 315.9074 15.19090019  3637,6886.726,94.794,509.775,507.408,0.0
50846.0,STARLINK-3308,PAYLOAD,2022-03-16 20:00:01,15.18737835,0.0001523,53.2175,225.9583,55.7651,227.6133,-0.033565,-0.00661581,0.0,0 STARLINK-3308,1 50846U 22001AV  22075.83334491 -.00661581  00000-0 -33565-1 0  9991,2 50846  53.2175 225.9583 0001523  55.7651 227.6133 15.18737835 12063,6887.791,94.816,510.705,508.607,0.0
50846.0,STARLINK-3308,PAYLOAD,2022-03-17 14:00:01,15.17690241,0.0001781999999999,53.2176,222.5434,37.988,26.8154,-0.03484,-0.00665926,0.0,0 STARLINK-3308,1 50846U 22001AV  22076.58334491 -.00665926  00000-0 -34840-1 0  9998,2 50846  53.2176 222.5434 0001782  37.9880  26.8154 15.17690241  3649,6890.96,94.881,514.053,511.597,0.0
50846.0,STARLINK-3308,PAYLOAD,2022-03-17 22:00:00,15.1722223,0.000186,53.2172,221.0282,35.4721,51.2758,-0.03512,-0.00662511,0.0,0 STARLINK-3308,1 50846U 22001AV  22076.91667824 -.00662511  00000-0 -35120-1 0  9993,2 50846  53.2172 221.0282 0001860  35.4721  51.2758 15.17222230  3645,6892.377,94.91,515.524,512.96,0.0
50846.0,STARLINK-3308,PAYLOAD,2022-03-18 08:00:01,15.16642413,0.0001734,53.2171,219.1331,44.55,158.8402,-0.036066,-0.00668681,0.0,0 STARLINK-3308,1 50846U 22001AV  22077.33334491 -.00668681  00000-0 -36066-1 0  9995,2 50846  53.2171 219.1331 0001734  44.5500 158.8402 15.16642413 12281,6894.134,94.947,517.194,514.803,0.0
50846.0,STARLINK-3308,PAYLOAD,2022-03-18 14:00:01,15.16289402,0.0001842,53.2175,217.9998,40.0827,88.8731,-0.036178,-0.00664302,0.0,0 STARLINK-3308,1 50846U 22001AV  22077.58334491 -.00664302  00000-0 -36178-1 0  9992,2 50846  53.2175 217.9998 0001842  40.0827  88.8731 15.16289402  3656,6895.204000000002,94.969,518.339,515.799,0.0
